[
  {
    "CCSDS_OMM_VERS": "2.0",
    "COMMENT": "GENERATED VIA SPACE-TRACK.ORG API",
    "CREATION_DATE": "2021-12-03T17:32:05",
    "ORIGINATOR": "18 SPCS",
    "OBJECT_NAME": "SCOUT X-4 R\/B",
    "OBJECT_ID": "1964-076C",
    "CENTER_NAME": "EARTH",
    "REF_FRAME": "TEME",
    "TIME_SYSTEM": "UTC",
    "MEAN_ELEMENT_THEORY": "SGP4",
    "EPOCH": "2021-12-03T11:42:05.445792",
    "MEAN_MOTION": "12.77556855",
    "ECCENTRICITY": "0.10704850",
    "INCLINATION": "81.3402",
    "RA_OF_ASC_NODE": "12.1128",
    "ARG_OF_PERICENTER": "230.6970",
    "MEAN_ANOMALY": "119.4393",
    "EPHEMERIS_TYPE": "0",
    "CLASSIFICATION_TYPE": "U",
    "NORAD_CAT_ID": "933",
    "ELEMENT_SET_NO": "999",
    "REV_AT_EPOCH": "62466",
    "BSTAR": "0.00010774000000",
    "MEAN_MOTION_DOT": "0.00000318",
    "MEAN_MOTION_DDOT": "0.0000000000000",
    "SEMIMAJOR_AXIS": "7729.446",
    "PERIOD": "112.715",
    "APOAPSIS": "2178.736",
    "PERIAPSIS": "523.885",
    "OBJECT_TYPE": "ROCKET BODY",
    "RCS_SIZE": "MEDIUM",
    "COUNTRY_CODE": "US",
    "LAUNCH_DATE": "1964-11-21",
    "SITE": "AFWTR",
    "DECAY_DATE": null,
    "FILE": "3231740",
    "GP_ID": "190991367",
    "TLE_LINE0": "0 SCOUT X-4 R\/B",
    "TLE_LINE1": "1 00933U 64076C   21337.48756303  .00000318  00000-0  10774-3 0  9994",
    "TLE_LINE2": "2 00933  81.3402  12.1128 1070485 230.6970 119.4393 12.77556855624667"
  },
  {
    "CCSDS_OMM_VERS": "2.0",
    "COMMENT": "GENERATED VIA SPACE-TRACK.ORG API",
    "CREATION_DATE": "2021-12-04T02:39:20",
    "ORIGINATOR": "18 SPCS",
    "OBJECT_NAME": "THOR ABLESTAR R\/B",
    "OBJECT_ID": "1964-083A",
    "CENTER_NAME": "EARTH",
    "REF_FRAME": "TEME",
    "TIME_SYSTEM": "UTC",
    "MEAN_ELEMENT_THEORY": "SGP4",
    "EPOCH": "2021-12-03T16:57:54.877824",
    "MEAN_MOTION": "13.58654685",
    "ECCENTRICITY": "0.00303360",
    "INCLINATION": "90.0033",
    "RA_OF_ASC_NODE": "189.9520",
    "ARG_OF_PERICENTER": "252.9678",
    "MEAN_ANOMALY": "148.4537",
    "EPHEMERIS_TYPE": "0",
    "CLASSIFICATION_TYPE": "U",
    "NORAD_CAT_ID": "953",
    "ELEMENT_SET_NO": "999",
    "REV_AT_EPOCH": "82368",
    "BSTAR": "0.00004500100000",
    "MEAN_MOTION_DOT": "0.00000042",
    "MEAN_MOTION_DDOT": "0.0000000000000",
    "SEMIMAJOR_AXIS": "7418.722",
    "PERIOD": "105.987",
    "APOAPSIS": "1063.093",
    "PERIAPSIS": "1018.082",
    "OBJECT_TYPE": "ROCKET BODY",
    "RCS_SIZE": "LARGE",
    "COUNTRY_CODE": "US",
    "LAUNCH_DATE": "1964-12-13",
    "SITE": "AFWTR",
    "DECAY_DATE": null,
    "FILE": "3231910",
    "GP_ID": "191017552",
    "TLE_LINE0": "0 THOR ABLESTAR R\/B",
    "TLE_LINE1": "1 00953U 64083A   21337.70688516  .00000042  00000-0  45001-4 0  9995",
    "TLE_LINE2": "2 00953  90.0033 189.9520 0030336 252.9678 148.4537 13.58654685823682"
  },
  {
    "CCSDS_OMM_VERS": "2.0",
    "COMMENT": "GENERATED VIA SPACE-TRACK.ORG API",
    "CREATION_DATE": "2021-12-03T17:32:05",
    "ORIGINATOR": "18 SPCS",
    "OBJECT_NAME": "THOR ABLESTAR DEB",
    "OBJECT_ID": "1964-083B",
    "CENTER_NAME": "EARTH",
    "REF_FRAME": "TEME",
    "TIME_SYSTEM": "UTC",
    "MEAN_ELEMENT_THEORY": "SGP4",
    "EPOCH": "2021-12-03T13:23:23.426592",
    "MEAN_MOTION": "13.66273433",
    "ECCENTRICITY": "0.00242950",
    "INCLINATION": "89.9562",
    "RA_OF_ASC_NODE": "178.2870",
    "ARG_OF_PERICENTER": "264.5370",
    "MEAN_ANOMALY": "122.0977",
    "EPHEMERIS_TYPE": "0",
    "CLASSIFICATION_TYPE": "U",
    "NORAD_CAT_ID": "956",
    "ELEMENT_SET_NO": "999",
    "REV_AT_EPOCH": "82986",
    "BSTAR": "0.00019086000000",
    "MEAN_MOTION_DOT": "0.00000167",
    "MEAN_MOTION_DDOT": "0.0000000000000",
    "SEMIMAJOR_AXIS": "7391.117",
    "PERIOD": "105.396",
    "APOAPSIS": "1030.939",
    "PERIAPSIS": "995.026",
    "OBJECT_TYPE": "DEBRIS",
    "RCS_SIZE": "SMALL",
    "COUNTRY_CODE": "US",
    "LAUNCH_DATE": "1964-12-13",
    "SITE": "AFWTR",
    "DECAY_DATE": null,
    "FILE": "3231740",
    "GP_ID": "190989866",
    "TLE_LINE0": "0 THOR ABLESTAR DEB",
    "TLE_LINE1": "1 00956U 64083B   21337.55791003  .00000167  00000-0  19086-3 0  9998",
    "TLE_LINE2": "2 00956  89.9562 178.2870 0024295 264.5370 122.0977 13.66273433829862"
  },
  {
    "CCSDS_OMM_VERS": "2.0",
    "COMMENT": "GENERATED VIA SPACE-TRACK.ORG API",
    "CREATION_DATE": "2021-12-03T17:32:05",
    "ORIGINATOR": "18 SPCS",
    "OBJECT_NAME": "OPS 6582 (TRANSIT 5E-5)",
    "OBJECT_ID": "1964-083C",
    "CENTER_NAME": "EARTH",
    "REF_FRAME": "TEME",
    "TIME_SYSTEM": "UTC",
    "MEAN_ELEMENT_THEORY": "SGP4",
    "EPOCH": "2021-12-03T13:03:33.388416",
    "MEAN_MOTION": "13.61697489",
    "ECCENTRICITY": "0.00428830",
    "INCLINATION": "89.9916",
    "RA_OF_ASC_NODE": "187.2315",
    "ARG_OF_PERICENTER": "150.0097",
    "MEAN_ANOMALY": "266.8918",
    "EPHEMERIS_TYPE": "0",
    "CLASSIFICATION_TYPE": "U",
    "NORAD_CAT_ID": "959",
    "ELEMENT_SET_NO": "999",
    "REV_AT_EPOCH": "82469",
    "BSTAR": "0.00012367000000",
    "MEAN_MOTION_DOT": "0.00000105",
    "MEAN_MOTION_DDOT": "0.0000000000000",
    "SEMIMAJOR_AXIS": "7407.666",
    "PERIOD": "105.750",
    "APOAPSIS": "1061.298",
    "PERIAPSIS": "997.765",
    "OBJECT_TYPE": "PAYLOAD",
    "RCS_SIZE": "LARGE",
    "COUNTRY_CODE": "US",
    "LAUNCH_DATE": "1964-12-13",
    "SITE": "AFWTR",
    "DECAY_DATE": null,
    "FILE": "3231740",
    "GP_ID": "190991117",
    "TLE_LINE0": "0 OPS 6582 (TRANSIT 5E-5)",
    "TLE_LINE1": "1 00959U 64083C   21337.54413644  .00000105  00000-0  12367-3 0  9999",
    "TLE_LINE2": "2 00959  89.9916 187.2315 0042883 150.0097 266.8918 13.61697489824694"
  },
  {
    "CCSDS_OMM_VERS": "2.0",
    "COMMENT": "GENERATED VIA SPACE-TRACK.ORG API",
    "CREATION_DATE": "2021-12-03T17:32:05",
    "ORIGINATOR": "18 SPCS",
    "OBJECT_NAME": "OPS 6582 (TRANSIT 5B-5)",
    "OBJECT_ID": "1964-083D",
    "CENTER_NAME": "EARTH",
    "REF_FRAME": "TEME",
    "TIME_SYSTEM": "UTC",
    "MEAN_ELEMENT_THEORY": "SGP4",
    "EPOCH": "2021-12-03T12:54:24.232608",
    "MEAN_MOTION": "13.56764659",
    "ECCENTRICITY": "0.00428310",
    "INCLINATION": "90.0232",
    "RA_OF_ASC_NODE": "194.8761",
    "ARG_OF_PERICENTER": "82.0924",
    "MEAN_ANOMALY": "338.6990",
    "EPHEMERIS_TYPE": "0",
    "CLASSIFICATION_TYPE": "U",
    "NORAD_CAT_ID": "965",
    "ELEMENT_SET_NO": "999",
    "REV_AT_EPOCH": "81895",
    "BSTAR": "0.00008272500000",
    "MEAN_MOTION_DOT": "0.00000069",
    "MEAN_MOTION_DDOT": "0.0000000000000",
    "SEMIMAJOR_AXIS": "7425.610",
    "PERIOD": "106.135",
    "APOAPSIS": "1079.280",
    "PERIAPSIS": "1015.671",
    "OBJECT_TYPE": "PAYLOAD",
    "RCS_SIZE": "MEDIUM",
    "COUNTRY_CODE": "US",
    "LAUNCH_DATE": "1964-12-13",
    "SITE": "AFWTR",
    "DECAY_DATE": null,
    "FILE": "3231740",
    "GP_ID": "190990868",
    "TLE_LINE0": "0 OPS 6582 (TRANSIT 5B-5)",
    "TLE_LINE1": "1 00965U 64083D   21337.53778047  .00000069  00000-0  82725-4 0  9991",
    "TLE_LINE2": "2 00965  90.0232 194.8761 0042831  82.0924 338.6990 13.56764659818958"
  },
  {
    "CCSDS_OMM_VERS": "2.0",
    "COMMENT": "GENERATED VIA SPACE-TRACK.ORG API",
    "CREATION_DATE": "2021-12-04T06:26:10",
    "ORIGINATOR": "18 SPCS",
    "OBJECT_NAME": "THOR ABLESTAR DEB",
    "OBJECT_ID": "1964-083F",
    "CENTER_NAME": "EARTH",
    "REF_FRAME": "TEME",
    "TIME_SYSTEM": "UTC",
    "MEAN_ELEMENT_THEORY": "SGP4",
    "EPOCH": "2021-12-04T02:39:32.757984",
    "MEAN_MOTION": "13.66157353",
    "ECCENTRICITY": "0.00232680",
    "INCLINATION": "89.9655",
    "RA_OF_ASC_NODE": "180.6703",
    "ARG_OF_PERICENTER": "274.0322",
    "MEAN_ANOMALY": "208.0525",
    "EPHEMERIS_TYPE": "0",
    "CLASSIFICATION_TYPE": "U",
    "NORAD_CAT_ID": "967",
    "ELEMENT_SET_NO": "999",
    "REV_AT_EPOCH": "83030",
    "BSTAR": "0.00018344000000",
    "MEAN_MOTION_DOT": "0.00000161",
    "MEAN_MOTION_DDOT": "0.0000000000000",
    "SEMIMAJOR_AXIS": "7391.536",
    "PERIOD": "105.405",
    "APOAPSIS": "1030.600",
    "PERIAPSIS": "996.202",
    "OBJECT_TYPE": "DEBRIS",
    "RCS_SIZE": "SMALL",
    "COUNTRY_CODE": "US",
    "LAUNCH_DATE": "1964-12-13",
    "SITE": "AFWTR",
    "DECAY_DATE": null,
    "FILE": "3231962",
    "GP_ID": "191041815",
    "TLE_LINE0": "0 THOR ABLESTAR DEB",
    "TLE_LINE1": "1   967U 64083F   21338.11079581  .00000161  00000-0  18344-3 0  9993",
    "TLE_LINE2": "2   967  89.9655 180.6703 0023268 274.0322 208.0525 13.66157353830308"
  },
  {
    "CCSDS_OMM_VERS": "2.0",
    "COMMENT": "GENERATED VIA SPACE-TRACK.ORG API",
    "CREATION_DATE": "2021-12-03T17:32:05",
    "ORIGINATOR": "18 SPCS",
    "OBJECT_NAME": "SCOUT X-4 DEB",
    "OBJECT_ID": "1964-064C",
    "CENTER_NAME": "EARTH",
    "REF_FRAME": "TEME",
    "TIME_SYSTEM": "UTC",
    "MEAN_ELEMENT_THEORY": "SGP4",
    "EPOCH": "2021-12-03T13:07:48.902592",
    "MEAN_MOTION": "14.05224308",
    "ECCENTRICITY": "0.01183050",
    "INCLINATION": "79.3148",
    "RA_OF_ASC_NODE": "111.7219",
    "ARG_OF_PERICENTER": "86.3435",
    "MEAN_ANOMALY": "275.1246",
    "EPHEMERIS_TYPE": "0",
    "CLASSIFICATION_TYPE": "U",
    "NORAD_CAT_ID": "976",
    "ELEMENT_SET_NO": "999",
    "REV_AT_EPOCH": "91015",
    "BSTAR": "0.00022523000000",
    "MEAN_MOTION_DOT": "0.00000394",
    "MEAN_MOTION_DDOT": "0.0000000000000",
    "SEMIMAJOR_AXIS": "7253.897",
    "PERIOD": "102.475",
    "APOAPSIS": "961.580",
    "PERIAPSIS": "789.945",
    "OBJECT_TYPE": "DEBRIS",
    "RCS_SIZE": "SMALL",
    "COUNTRY_CODE": "US",
    "LAUNCH_DATE": "1964-10-10",
    "SITE": "AFWTR",
    "DECAY_DATE": null,
    "FILE": "3231740",
    "GP_ID": "190990366",
    "TLE_LINE0": "0 SCOUT X-4 DEB",
    "TLE_LINE1": "1 00976U 64064C   21337.54709378  .00000394  00000-0  22523-3 0  9994",
    "TLE_LINE2": "2 00976  79.3148 111.7219 0118305  86.3435 275.1246 14.05224308910157"
  }
]
